{
  "links" : {
    "next" : "https://api.nasa.gov/neo/rest/v1/neo/browse?page=12&size=20&api_key=jqAGvNAwUIBu4fl9FSOjdm3V4F7hIglRzI6pdX9d",
    "prev" : "https://api.nasa.gov/neo/rest/v1/neo/browse?page=10&size=20&api_key=jqAGvNAwUIBu4fl9FSOjdm3V4F7hIglRzI6pdX9d",
    "self" : "https://api.nasa.gov/neo/rest/v1/neo/browse?page=11&size=20&api_key=jqAGvNAwUIBu4fl9FSOjdm3V4F7hIglRzI6pdX9d"
  },
  "page" : {
    "size" : 20,
    "total_elements" : 20750,
    "total_pages" : 1038,
    "number" : 11
  },
  "near_earth_objects" : [ {
    "links" : {
      "self" : "https://api.nasa.gov/neo/rest/v1/neo/3143086?api_key=jqAGvNAwUIBu4fl9FSOjdm3V4F7hIglRzI6pdX9d"
    },
    "neo_reference_id" : "3143086",
    "name" : "(2002 VZ91)",
    "designation" : "2002 VZ91",
    "nasa_jpl_url" : "http://ssd.jpl.nasa.gov/sbdb.cgi?sstr=3143086",
    "absolute_magnitude_h" : 26.1,
    "estimated_diameter" : {
      "kilometers" : {
        "estimated_diameter_min" : 0.0160160338,
        "estimated_diameter_max" : 0.0358129403
      },
      "meters" : {
        "estimated_diameter_min" : 16.0160337979,
        "estimated_diameter_max" : 35.8129403019
      },
      "miles" : {
        "estimated_diameter_min" : 0.0099518989,
        "estimated_diameter_max" : 0.0222531225
      },
      "feet" : {
        "estimated_diameter_min" : 52.5460443254,
        "estimated_diameter_max" : 117.4965270602
      }
    },
    "is_potentially_hazardous_asteroid" : false,
    "close_approach_data" : [ {
      "close_approach_date" : "1998-12-13",
      "epoch_date_close_approach" : 913536000000,
      "relative_velocity" : {
        "kilometers_per_second" : "20.7679846697",
        "kilometers_per_hour" : "74764.7448108059",
        "miles_per_hour" : "46455.904907581"
      },
      "miss_distance" : {
        "astronomical" : "0.4636124973",
        "lunar" : "180.3452606201",
        "kilometers" : "69355440",
        "miles" : "43095476"
      },
      "orbiting_body" : "Earth"
    }, {
      "close_approach_date" : "2000-11-30",
      "epoch_date_close_approach" : 975571200000,
      "relative_velocity" : {
        "kilometers_per_second" : "13.7785689197",
        "kilometers_per_hour" : "49602.84811096",
        "miles_per_hour" : "30821.2808165018"
      },
      "miss_distance" : {
        "astronomical" : "0.2292443295",
        "lunar" : "89.1760482788",
        "kilometers" : "34294464",
        "miles" : "21309592"
      },
      "orbiting_body" : "Earth"
    }, {
      "close_approach_date" : "2002-11-07",
      "epoch_date_close_approach" : 1036656000000,
      "relative_velocity" : {
        "kilometers_per_second" : "7.0434555295",
        "kilometers_per_hour" : "25356.43990613",
        "miles_per_hour" : "15755.5056738951"
      },
      "miss_distance" : {
        "astronomical" : "0.0116569805",
        "lunar" : "4.5345654488",
        "kilometers" : "1743859.5",
        "miles" : "1083584.125"
      },
      "orbiting_body" : "Earth"
    } ],
    "orbital_data" : {
      "orbit_id" : "8",
      "orbit_determination_date" : "2017-04-06 09:14:37",
      "first_observation_date" : "2002-11-12",
      "last_observation_date" : "2002-11-28",
      "data_arc_in_days" : 16,
      "observations_used" : 26,
      "orbit_uncertainty" : "8",
      "minimum_orbit_intersection" : ".00787797",
      "jupiter_tisserand_invariant" : "4.315",
      "epoch_osculation" : "2452593.5",
      "eccentricity" : ".3846317219661288",
      "semi_major_axis" : "1.576604866954779",
      "inclination" : "3.486180283701174",
      "ascending_node_longitude" : "49.07032547734317",
      "orbital_period" : "723.0739593305783",
      "perihelion_distance" : ".9701926221177827",
      "perihelion_argument" : "328.7596339963177",
      "aphelion_distance" : "2.183017111791774",
      "perihelion_time" : "2452563.570088394111",
      "mean_anomaly" : "14.90133621752236",
      "mean_motion" : ".4978743811121173",
      "equinox" : "J2000",
      "orbit_class" : {
        "orbit_class_type" : "APO",
        "orbit_class_range" : "a (semi-major axis) > 1.0 AU; q (perihelion) < 1.017 AU",
        "orbit_class_description" : "Near-Earth asteroid orbits which cross the Earth’s orbit similar to that of 1862 Apollo"
      }
    },
    "is_sentry_object" : false
  }, {
    "links" : {
      "self" : "https://api.nasa.gov/neo/rest/v1/neo/3144145?api_key=jqAGvNAwUIBu4fl9FSOjdm3V4F7hIglRzI6pdX9d"
    },
    "neo_reference_id" : "3144145",
    "name" : "(2002 XW4)",
    "designation" : "2002 XW4",
    "nasa_jpl_url" : "http://ssd.jpl.nasa.gov/sbdb.cgi?sstr=3144145",
    "absolute_magnitude_h" : 21.7,
    "estimated_diameter" : {
      "kilometers" : {
        "estimated_diameter_min" : 0.1214940408,
        "estimated_diameter_max" : 0.2716689341
      },
      "meters" : {
        "estimated_diameter_min" : 121.4940407996,
        "estimated_diameter_max" : 271.6689340891
      },
      "miles" : {
        "estimated_diameter_min" : 0.0754928736,
        "estimated_diameter_max" : 0.1688071972
      },
      "feet" : {
        "estimated_diameter_min" : 398.6025088171,
        "estimated_diameter_max" : 891.3023057169
      }
    },
    "is_potentially_hazardous_asteroid" : false,
    "close_approach_data" : [ {
      "close_approach_date" : "2002-11-13",
      "epoch_date_close_approach" : 1037174400000,
      "relative_velocity" : {
        "kilometers_per_second" : "4.6255201462",
        "kilometers_per_hour" : "16651.8725264186",
        "miles_per_hour" : "10346.826015096"
      },
      "miss_distance" : {
        "astronomical" : "0.2420634491",
        "lunar" : "94.1626815796",
        "kilometers" : "36212176",
        "miles" : "22501204"
      },
      "orbiting_body" : "Earth"
    } ],
    "orbital_data" : {
      "orbit_id" : "11",
      "orbit_determination_date" : "2017-04-06 09:14:34",
      "first_observation_date" : "2002-11-28",
      "last_observation_date" : "2002-12-28",
      "data_arc_in_days" : 30,
      "observations_used" : 32,
      "orbit_uncertainty" : "8",
      "minimum_orbit_intersection" : ".226629",
      "jupiter_tisserand_invariant" : "3.321",
      "epoch_osculation" : "2452616.5",
      "eccentricity" : ".5009810465514623",
      "semi_major_axis" : "2.420797083137009",
      "inclination" : "6.965092831784204",
      "ascending_node_longitude" : "76.29172772862184",
      "orbital_period" : "1375.738869955333",
      "perihelion_distance" : "1.208023626938303",
      "perihelion_argument" : "329.9200504924748",
      "aphelion_distance" : "3.633570539335714",
      "perihelion_time" : "2452582.350400653972",
      "mean_anomaly" : "8.936184063018608",
      "mean_motion" : ".2616775667694031",
      "equinox" : "J2000",
      "orbit_class" : {
        "orbit_class_type" : "AMO",
        "orbit_class_range" : "1.017 AU < q (perihelion) < 1.3 AU",
        "orbit_class_description" : "Near-Earth asteroid orbits similar to that of 1221 Amor"
      }
    },
    "is_sentry_object" : false
  }, {
    "links" : {
      "self" : "https://api.nasa.gov/neo/rest/v1/neo/3144154?api_key=jqAGvNAwUIBu4fl9FSOjdm3V4F7hIglRzI6pdX9d"
    },
    "neo_reference_id" : "3144154",
    "name" : "(2002 XM35)",
    "designation" : "2002 XM35",
    "nasa_jpl_url" : "http://ssd.jpl.nasa.gov/sbdb.cgi?sstr=3144154",
    "absolute_magnitude_h" : 22.958,
    "estimated_diameter" : {
      "kilometers" : {
        "estimated_diameter_min" : 0.0680698787,
        "estimated_diameter_max" : 0.152208876
      },
      "meters" : {
        "estimated_diameter_min" : 68.069878686,
        "estimated_diameter_max" : 152.2088759621
      },
      "miles" : {
        "estimated_diameter_min" : 0.0422966486,
        "estimated_diameter_max" : 0.0945781815
      },
      "feet" : {
        "estimated_diameter_min" : 223.3263807883,
        "estimated_diameter_max" : 499.3729686116
      }
    },
    "is_potentially_hazardous_asteroid" : false,
    "close_approach_data" : [ {
      "close_approach_date" : "2002-12-06",
      "epoch_date_close_approach" : 1039161600000,
      "relative_velocity" : {
        "kilometers_per_second" : "26.8819290793",
        "kilometers_per_hour" : "96774.9446856514",
        "miles_per_hour" : "60132.1871575926"
      },
      "miss_distance" : {
        "astronomical" : "0.0510393182",
        "lunar" : "19.8542957306",
        "kilometers" : "7635373.5",
        "miles" : "4744401"
      },
      "orbiting_body" : "Earth"
    } ],
    "orbital_data" : {
      "orbit_id" : "7",
      "orbit_determination_date" : "2017-04-06 09:14:32",
      "first_observation_date" : "2002-12-01",
      "last_observation_date" : "2002-12-02",
      "data_arc_in_days" : 1,
      "observations_used" : 9,
      "orbit_uncertainty" : "9",
      "minimum_orbit_intersection" : ".019573",
      "jupiter_tisserand_invariant" : "2.958",
      "epoch_osculation" : "2452610.5",
      "eccentricity" : ".8387478289446383",
      "semi_major_axis" : "2.334056056521213",
      "inclination" : "3.063279767453017",
      "ascending_node_longitude" : "229.9635215891961",
      "orbital_period" : "1302.462866018525",
      "perihelion_distance" : ".3763716064789617",
      "perihelion_argument" : "312.6386145352662",
      "aphelion_distance" : "4.291740506563465",
      "perihelion_time" : "2452657.459046726862",
      "mean_anomaly" : "347.0205460265077",
      "mean_motion" : ".276399434788093",
      "equinox" : "J2000",
      "orbit_class" : {
        "orbit_class_type" : "APO",
        "orbit_class_range" : "a (semi-major axis) > 1.0 AU; q (perihelion) < 1.017 AU",
        "orbit_class_description" : "Near-Earth asteroid orbits which cross the Earth’s orbit similar to that of 1862 Apollo"
      }
    },
    "is_sentry_object" : false
  } ]
}